start=new Date('2022-07-24T00:00:00.000Z').valueOf();
sats=[{"OBJECT_TYPE":"PAYLOAD","ELEMENT_SET_NO":"999","LAUNCH_DATE":"2021-03-11","OBJECT_NAME":"STARLINK-2406","DECAY_DATE":null,"CLASSIFICATION_TYPE":"U","INCLINATION":"53.0555","OBJECT_ID":"2021-018AL","RCS_SIZE":"LARGE","NORAD_CAT_ID":"47821","ARG_OF_PERICENTER":"88.5725","GP_ID":"208735346","COUNTRY_CODE":"US","SEMIMAJOR_AXIS":"6925.393","MEAN_MOTION_DOT":"0.00000894","ECCENTRICITY":"0.00014300","EPHEMERIS_TYPE":"0","CENTER_NAME":"EARTH","PERIAPSIS":"546.267","MEAN_MOTION_DDOT":"0.0000000000000","RA_OF_ASC_NODE":"79.1745","TLE_LINE1":"1 47821U 21018AL  22204.82679070  .00000894  00000-0  78920-4 0  9994","MEAN_ANOMALY":"271.5427","PERIOD":"95.593","MEAN_ELEMENT_THEORY":"SGP4","TLE_LINE2":"2 47821  53.0555  79.1745 0001430  88.5725 271.5427 15.06385564 76906","FILE":"3520602","APOAPSIS":"548.248","REF_FRAME":"TEME","MEAN_MOTION":"15.06385564","BSTAR":"0.00007892000000","TIME_SYSTEM":"UTC","EPOCH":"2022-07-23T19:50:34.716480","REV_AT_EPOCH":"7690","SITE":"AFETR"},{"APOAPSIS":"548.375","FILE":"3520602","REF_FRAME":"TEME","EPOCH":"2022-07-23T20:03:48.830112","SITE":"AFETR","REV_AT_EPOCH":"7677","MEAN_MOTION":"15.06401949","TIME_SYSTEM":"UTC","BSTAR":"0.00040843000000","MEAN_MOTION_DOT":"0.00005807","ECCENTRICITY":"0.00016860","RA_OF_ASC_NODE":"89.1088","TLE_LINE1":"1 47822U 21018AM  22204.83598183  .00005807  00000-0  40843-3 0  9992","MEAN_ANOMALY":"293.1933","PERIOD":"95.592","MEAN_ELEMENT_THEORY":"SGP4","TLE_LINE2":"2 47822  53.0540  89.1088 0001686  66.9233 293.1933 15.06401949 76772","EPHEMERIS_TYPE":"0","CENTER_NAME":"EARTH","MEAN_MOTION_DDOT":"0.0000000000000","PERIAPSIS":"546.040","RCS_SIZE":"LARGE","NORAD_CAT_ID":"47822","ARG_OF_PERICENTER":"66.9233","INCLINATION":"53.0540","OBJECT_ID":"2021-018AM","GP_ID":"208735596","COUNTRY_CODE":"US","SEMIMAJOR_AXIS":"6925.343","OBJECT_TYPE":"PAYLOAD","ELEMENT_SET_NO":"999","LAUNCH_DATE":"2021-03-11","CLASSIFICATION_TYPE":"U","OBJECT_NAME":"STARLINK-2407","DECAY_DATE":null},{"TLE_LINE2":"2 47823  53.0539  79.0405 0001614  64.4257 295.6898 15.06400614 76913","PERIOD":"95.592","MEAN_ELEMENT_THEORY":"SGP4","MEAN_ANOMALY":"295.6898","RA_OF_ASC_NODE":"79.0405","TLE_LINE1":"1 47823U 21018AN  22204.85164782  .00004749  00000-0  33747-3 0  9998","PERIAPSIS":"546.094","MEAN_MOTION_DDOT":"0.0000000000000","CENTER_NAME":"EARTH","EPHEMERIS_TYPE":"0","ECCENTRICITY":"0.00016140","MEAN_MOTION_DOT":"0.00004749","SITE":"AFETR","REV_AT_EPOCH":"7691","EPOCH":"2022-07-23T20:26:22.371648","TIME_SYSTEM":"UTC","BSTAR":"0.00033747000000","MEAN_MOTION":"15.06400614","REF_FRAME":"TEME","APOAPSIS":"548.329","FILE":"3520602","CLASSIFICATION_TYPE":"U","DECAY_DATE":null,"OBJECT_NAME":"STARLINK-2408","LAUNCH_DATE":"2021-03-11","ELEMENT_SET_NO":"999","OBJECT_TYPE":"PAYLOAD","SEMIMAJOR_AXIS":"6925.347","COUNTRY_CODE":"US","GP_ID":"208736847","ARG_OF_PERICENTER":"64.4257","NORAD_CAT_ID":"47823","RCS_SIZE":"LARGE","OBJECT_ID":"2021-018AN","INCLINATION":"53.0539"},{"NORAD_CAT_ID":"47824","RCS_SIZE":"LARGE","ARG_OF_PERICENTER":"78.6818","INCLINATION":"53.0552","OBJECT_ID":"2021-018AP","SEMIMAJOR_AXIS":"6925.394","GP_ID":"208736598","COUNTRY_CODE":"US","LAUNCH_DATE":"2021-03-11","OBJECT_TYPE":"PAYLOAD","ELEMENT_SET_NO":"999","CLASSIFICATION_TYPE":"U","DECAY_DATE":null,"OBJECT_NAME":"STARLINK-2409","REF_FRAME":"TEME","FILE":"3520602","APOAPSIS":"548.193","REV_AT_EPOCH":"7691","SITE":"AFETR","EPOCH":"2022-07-23T21:47:20.374944","TIME_SYSTEM":"UTC","BSTAR":"-0.00007413000000","MEAN_MOTION":"15.06385152","MEAN_MOTION_DOT":"-0.00001385","ECCENTRICITY":"0.00013480","MEAN_ELEMENT_THEORY":"SGP4","PERIOD":"95.593","TLE_LINE2":"2 47824  53.0552  78.8037 0001348  78.6818 281.4323 15.06385152 76916","RA_OF_ASC_NODE":"78.8037","TLE_LINE1":"1 47824U 21018AP  22204.90787471 -.00001385  00000-0 -74130-4 0  9998","MEAN_ANOMALY":"281.4323","CENTER_NAME":"EARTH","MEAN_MOTION_DDOT":"0.0000000000000","PERIAPSIS":"546.326","EPHEMERIS_TYPE":"0"},{"DECAY_DATE":null,"OBJECT_NAME":"STARLINK-2410","CLASSIFICATION_TYPE":"U","LAUNCH_DATE":"2021-03-11","OBJECT_TYPE":"PAYLOAD","ELEMENT_SET_NO":"999","SEMIMAJOR_AXIS":"6925.350","GP_ID":"208735846","COUNTRY_CODE":"US","INCLINATION":"53.0547","OBJECT_ID":"2021-018AQ","NORAD_CAT_ID":"47825","RCS_SIZE":"LARGE","ARG_OF_PERICENTER":"93.2255","CENTER_NAME":"EARTH","MEAN_MOTION_DDOT":"0.0000000000000","PERIAPSIS":"546.217","EPHEMERIS_TYPE":"0","MEAN_ELEMENT_THEORY":"SGP4","PERIOD":"95.592","TLE_LINE2":"2 47825  53.0547  79.0160 0001441  93.2255 266.8898 15.06399658 76913","TLE_LINE1":"1 47825U 21018AQ  22204.85994845  .00001200  00000-0  99452-4 0  9996","RA_OF_ASC_NODE":"79.0160","MEAN_ANOMALY":"266.8898","MEAN_MOTION_DOT":"0.00001200","ECCENTRICITY":"0.00014410","BSTAR":"0.00009945200000","TIME_SYSTEM":"UTC","MEAN_MOTION":"15.06399658","SITE":"AFETR","REV_AT_EPOCH":"7691","EPOCH":"2022-07-23T20:38:19.546080","REF_FRAME":"TEME","APOAPSIS":"548.213","FILE":"3520602"},{"MEAN_ELEMENT_THEORY":"SGP4","PERIOD":"95.592","TLE_LINE2":"2 47826  53.0541  78.7361 0001648  60.1334 299.9819 15.06395722 76588","TLE_LINE1":"1 47826U 21018AR  22204.92263199  .00003804  00000-0  27418-3 0  9990","RA_OF_ASC_NODE":"78.7361","MEAN_ANOMALY":"299.9819","CENTER_NAME":"EARTH","PERIAPSIS":"546.085","MEAN_MOTION_DDOT":"0.0000000000000","EPHEMERIS_TYPE":"0","MEAN_MOTION_DOT":"0.00003804","ECCENTRICITY":"0.00016480","REV_AT_EPOCH":"7658","SITE":"AFETR","EPOCH":"2022-07-23T22:08:35.403936","BSTAR":"0.00027418000000","TIME_SYSTEM":"UTC","MEAN_MOTION":"15.06395722","REF_FRAME":"TEME","APOAPSIS":"548.368","FILE":"3520569","CLASSIFICATION_TYPE":"U","DECAY_DATE":null,"OBJECT_NAME":"STARLINK-2411","LAUNCH_DATE":"2021-03-11","OBJECT_TYPE":"PAYLOAD","ELEMENT_SET_NO":"999","SEMIMAJOR_AXIS":"6925.362","GP_ID":"208714121","COUNTRY_CODE":"US","RCS_SIZE":"LARGE","NORAD_CAT_ID":"47826","ARG_OF_PERICENTER":"60.1334","INCLINATION":"53.0541","OBJECT_ID":"2021-018AR"},{"OBJECT_TYPE":"PAYLOAD","ELEMENT_SET_NO":"999","LAUNCH_DATE":"2021-03-11","OBJECT_NAME":"STARLINK-2413","DECAY_DATE":null,"CLASSIFICATION_TYPE":"U","INCLINATION":"53.0537","OBJECT_ID":"2021-018AS","NORAD_CAT_ID":"47827","RCS_SIZE":"LARGE","ARG_OF_PERICENTER":"86.1031","GP_ID":"208736348","COUNTRY_CODE":"US","SEMIMAJOR_AXIS":"6925.345","MEAN_MOTION_DOT":"0.00006450","ECCENTRICITY":"0.00012730","EPHEMERIS_TYPE":"0","CENTER_NAME":"EARTH","PERIAPSIS":"546.328","MEAN_MOTION_DDOT":"0.0000000000000","RA_OF_ASC_NODE":"69.0454","TLE_LINE1":"1 47827U 21018AS  22204.90515450  .00006450  00000-0  45150-3 0  9992","MEAN_ANOMALY":"274.0104","MEAN_ELEMENT_THEORY":"SGP4","PERIOD":"95.592","TLE_LINE2":"2 47827  53.0537  69.0454 0001273  86.1031 274.0104 15.06401242 77112","FILE":"3520602","APOAPSIS":"548.091","REF_FRAME":"TEME","MEAN_MOTION":"15.06401242","BSTAR":"0.00045150000000","TIME_SYSTEM":"UTC","EPOCH":"2022-07-23T21:43:25.348800","REV_AT_EPOCH":"7711","SITE":"AFETR"},{"ELEMENT_SET_NO":"999","OBJECT_TYPE":"PAYLOAD","LAUNCH_DATE":"2021-03-11","CLASSIFICATION_TYPE":"U","OBJECT_NAME":"STARLINK-2415","DECAY_DATE":null,"ARG_OF_PERICENTER":"71.5029","NORAD_CAT_ID":"47828","RCS_SIZE":"LARGE","OBJECT_ID":"2021-018AT","INCLINATION":"53.0554","COUNTRY_CODE":"US","GP_ID":"208737098","SEMIMAJOR_AXIS":"6925.397","ECCENTRICITY":"0.00016030","MEAN_MOTION_DOT":"0.00001893","MEAN_ANOMALY":"288.6135","TLE_LINE1":"1 47828U 21018AT  22204.84061343  .00001893  00000-0  14604-3 0  9999","RA_OF_ASC_NODE":"89.1039","TLE_LINE2":"2 47828  53.0554  89.1039 0001603  71.5029 288.6135 15.06384049 76777","PERIOD":"95.593","MEAN_ELEMENT_THEORY":"SGP4","EPHEMERIS_TYPE":"0","PERIAPSIS":"546.152","MEAN_MOTION_DDOT":"0.0000000000000","CENTER_NAME":"EARTH","FILE":"3520602","APOAPSIS":"548.373","REF_FRAME":"TEME","EPOCH":"2022-07-23T20:10:29.000352","SITE":"AFETR","REV_AT_EPOCH":"7677","MEAN_MOTION":"15.06384049","BSTAR":"0.00014604000000","TIME_SYSTEM":"UTC"},{"LAUNCH_DATE":"2021-03-11","OBJECT_TYPE":"PAYLOAD","ELEMENT_SET_NO":"999","CLASSIFICATION_TYPE":"U","DECAY_DATE":null,"OBJECT_NAME":"STARLINK-2416","RCS_SIZE":"LARGE","NORAD_CAT_ID":"47829","ARG_OF_PERICENTER":"69.3166","INCLINATION":"53.0535","OBJECT_ID":"2021-018AU","SEMIMAJOR_AXIS":"6925.386","GP_ID":"208735347","COUNTRY_CODE":"US","MEAN_MOTION_DOT":"-0.00001970","ECCENTRICITY":"0.00015630","MEAN_ELEMENT_THEORY":"SGP4","PERIOD":"95.593","TLE_LINE2":"2 47829  53.0535  89.0196 0001563  69.3166 290.7990 15.06387933 76769","RA_OF_ASC_NODE":"89.0196","TLE_LINE1":"1 47829U 21018AU  22204.85903079 -.00001970  00000-0 -11340-3 0  9994","MEAN_ANOMALY":"290.7990","CENTER_NAME":"EARTH","MEAN_MOTION_DDOT":"0.0000000000000","PERIAPSIS":"546.168","EPHEMERIS_TYPE":"0","REF_FRAME":"TEME","FILE":"3520602","APOAPSIS":"548.333","SITE":"AFETR","REV_AT_EPOCH":"7676","EPOCH":"2022-07-23T20:37:00.260256","BSTAR":"-0.00011340000000","TIME_SYSTEM":"UTC","MEAN_MOTION":"15.06387933"},{"MEAN_MOTION_DOT":"-0.00001460","ECCENTRICITY":"0.00016260","EPHEMERIS_TYPE":"0","CENTER_NAME":"EARTH","PERIAPSIS":"546.132","MEAN_MOTION_DDOT":"0.0000000000000","TLE_LINE1":"1 47830U 21018AV  22204.85535234 -.00001460  00000-0 -79132-4 0  9998","RA_OF_ASC_NODE":"89.0450","MEAN_ANOMALY":"290.2559","MEAN_ELEMENT_THEORY":"SGP4","PERIOD":"95.593","TLE_LINE2":"2 47830  53.0546  89.0450 0001626  69.8605 290.2559 15.06385603 76767","FILE":"3520602","APOAPSIS":"548.384","REF_FRAME":"TEME","MEAN_MOTION":"15.06385603","TIME_SYSTEM":"UTC","BSTAR":"-0.00007913200000","EPOCH":"2022-07-23T20:31:42.442176","SITE":"AFETR","REV_AT_EPOCH":"7676","OBJECT_TYPE":"PAYLOAD","ELEMENT_SET_NO":"999","LAUNCH_DATE":"2021-03-11","OBJECT_NAME":"STARLINK-2419","DECAY_DATE":null,"CLASSIFICATION_TYPE":"U","INCLINATION":"53.0546","OBJECT_ID":"2021-018AV","NORAD_CAT_ID":"47830","RCS_SIZE":"LARGE","ARG_OF_PERICENTER":"69.8605","GP_ID":"208735597","COUNTRY_CODE":"US","SEMIMAJOR_AXIS":"6925.393"}];
